{"type": "FeatureCollection", "features": [ {"type": "Feature", "properties": {"norad_id": 42741, "name": "EUTELSAT 172B", "group": "eutelsat", "lat": -0.02683509108841151, "lon": 8.537000812399063, "alt_km": 35785.30105722097, "timestamp": "2025-12-14T07:33:19.149889+00:00", "meta": {"OBJECT_NAME": "EUTELSAT 172B", "OBJECT_ID": "2017-029B", "EPOCH": "2025-12-13T14:02:28.895424", "MEAN_MOTION": 1.00270673, "ECCENTRICITY": 2.679e-05, "INCLINATION": 0.0463, "RA_OF_ASC_NODE": 139.9008, "ARG_OF_PERICENTER": 247.1462, "MEAN_ANOMALY": 78.0741, "EPHEMERIS_TYPE": 0, "CLASSIFICATION_TYPE": "U", "NORAD_CAT_ID": 42741, "ELEMENT_SET_NO": 999, "REV_AT_EPOCH": 3187, "BSTAR": 0, "MEAN_MOTION_DOT": 9e-08, "MEAN_MOTION_DDOT": 0}, "tle": {"line1": "1 42741U 17029B   25347.58505666  .00000009  00000+0  00000+0 0  9996", "line2": "2 42741   0.0463 139.9008 0000267 247.1462  78.0741  1.00270673 31876"}}, "geometry": {"type": "Point", "coordinates": [8.537000812399063, -0.02683509108841151]}}, {"type": "Feature", "properties": {"norad_id": 44334, "name": "EUTELSAT 7C", "group": "eutelsat", "lat": 0.009112178960231873, "lon": -156.4823058198348, "alt_km": 35776.253089039405, "timestamp": "2025-12-14T07:33:19.149901+00:00", "meta": {"OBJECT_NAME": "EUTELSAT 7C", "OBJECT_ID": "2019-034B", "EPOCH": "2025-12-13T15:11:40.735104", "MEAN_MOTION": 1.00271666, "ECCENTRICITY": 0.00031677, "INCLINATION": 0.0725, "RA_OF_ASC_NODE": 178.8041, "ARG_OF_PERICENTER": 67.5886, "MEAN_ANOMALY": 71.077, "EPHEMERIS_TYPE": 0, "CLASSIFICATION_TYPE": "U", "NORAD_CAT_ID": 44334, "ELEMENT_SET_NO": 999, "REV_AT_EPOCH": 497, "BSTAR": 0, "MEAN_MOTION_DOT": 6.4e-07, "MEAN_MOTION_DDOT": 0}, "tle": {"line1": "1 44334U 19034B   25347.63311036  .00000064  00000+0  00000+0 0  9997", "line2": "2 44334   0.0725 178.8041 0003167  67.5886  71.0770  1.00271666  4971"}}, "geometry": {"type": "Point", "coordinates": [-156.4823058198348, 0.009112178960231873]}}, {"type": "Feature", "properties": {"norad_id": 44624, "name": "EUTELSAT 5 WEST B", "group": "eutelsat", "lat": -0.03333756005719271, "lon": -168.48009474902437, "alt_km": 35781.54949768361, "timestamp": "2025-12-14T07:33:19.149913+00:00", "meta": {"OBJECT_NAME": "EUTELSAT 5 WEST B", "OBJECT_ID": "2019-067A", "EPOCH": "2025-12-13T15:08:18.558240", "MEAN_MOTION": 1.00272105, "ECCENTRICITY": 0.00033004, "INCLINATION": 0.0617, "RA_OF_ASC_NODE": 351.0606, "ARG_OF_PERICENTER": 272.0253, "MEAN_ANOMALY": 41.5517, "EPHEMERIS_TYPE": 0, "CLASSIFICATION_TYPE": "U", "NORAD_CAT_ID": 44624, "ELEMENT_SET_NO": 999, "REV_AT_EPOCH": 2257, "BSTAR": 0, "MEAN_MOTION_DOT": -2.7e-07, "MEAN_MOTION_DDOT": 0}, "tle": {"line1": "1 44624U 19067A   25347.63077035 -.00000027  00000+0  00000+0 0  9993", "line2": "2 44624   0.0617 351.0606 0003300 272.0253  41.5517  1.00272105 22571"}}, "geometry": {"type": "Point", "coordinates": [-168.48009474902437, -0.03333756005719271]}}, {"type": "Feature", "properties": {"norad_id": 45027, "name": "EUTELSAT KONNECT", "group": "eutelsat", "lat": 0.0485020129485297, "lon": -156.27251492001767, "alt_km": 35785.99589025178, "timestamp": "2025-12-14T07:33:19.149925+00:00", "meta": {"OBJECT_NAME": "EUTELSAT KONNECT", "OBJECT_ID": "2020-005B", "EPOCH": "2025-12-13T15:11:48.223392", "MEAN_MOTION": 1.00268961, "ECCENTRICITY": 0.00014801, "INCLINATION": 0.0706, "RA_OF_ASC_NODE": 96.3476, "ARG_OF_PERICENTER": 190.0371, "MEAN_ANOMALY": 31.3246, "EPHEMERIS_TYPE": 0, "CLASSIFICATION_TYPE": "U", "NORAD_CAT_ID": 45027, "ELEMENT_SET_NO": 999, "REV_AT_EPOCH": 2247, "BSTAR": 0, "MEAN_MOTION_DOT": 6.4e-07, "MEAN_MOTION_DDOT": 0}, "tle": {"line1": "1 45027U 20005B   25347.63319703  .00000064  00000+0  00000+0 0  9996", "line2": "2 45027   0.0706  96.3476 0001480 190.0371  31.3246  1.00268961 22479"}}, "geometry": {"type": "Point", "coordinates": [-156.27251492001767, 0.0485020129485297]}}, {"type": "Feature", "properties": {"norad_id": 49056, "name": "EUTELSAT QUANTUM", "group": "eutelsat", "lat": -0.023864802099545376, "lon": -115.75715081975673, "alt_km": 35772.572313979, "timestamp": "2025-12-14T07:33:19.149937+00:00", "meta": {"OBJECT_NAME": "EUTELSAT QUANTUM", "OBJECT_ID": "2021-069B", "EPOCH": "2025-12-13T15:23:17.123424", "MEAN_MOTION": 1.00273236, "ECCENTRICITY": 0.00035885, "INCLINATION": 0.0246, "RA_OF_ASC_NODE": 43.9854, "ARG_OF_PERICENTER": 231.2877, "MEAN_ANOMALY": 85.8237, "EPHEMERIS_TYPE": 0, "CLASSIFICATION_TYPE": "U", "NORAD_CAT_ID": 49056, "ELEMENT_SET_NO": 999, "REV_AT_EPOCH": 1606, "BSTAR": 0, "MEAN_MOTION_DOT": 1.41e-06, "MEAN_MOTION_DDOT": 0}, "tle": {"line1": "1 49056U 21069B   25347.64117041  .00000141  00000+0  00000+0 0  9991", "line2": "2 49056   0.0246  43.9854 0003588 231.2877  85.8237  1.00273236 16065"}}, "geometry": {"type": "Point", "coordinates": [-115.75715081975673, -0.023864802099545376]}}, {"type": "Feature", "properties": {"norad_id": 53765, "name": "EUTELSAT KONNECT VHTS", "group": "eutelsat", "lat": 0.048869560636854874, "lon": -160.74569773099688, "alt_km": 35778.701084418164, "timestamp": "2025-12-14T07:33:19.149949+00:00", "meta": {"OBJECT_NAME": "EUTELSAT KONNECT VHTS", "OBJECT_ID": "2022-110A", "EPOCH": "2025-12-12T23:45:57.918816", "MEAN_MOTION": 1.00271501, "ECCENTRICITY": 0.00023835, "INCLINATION": 0.0657, "RA_OF_ASC_NODE": 101.0037, "ARG_OF_PERICENTER": 141.1037, "MEAN_ANOMALY": 199.031, "EPHEMERIS_TYPE": 0, "CLASSIFICATION_TYPE": "U", "NORAD_CAT_ID": 53765, "ELEMENT_SET_NO": 999, "REV_AT_EPOCH": 495, "BSTAR": 0, "MEAN_MOTION_DOT": 3e-07, "MEAN_MOTION_DDOT": 0}, "tle": {"line1": "1 53765U 22110A   25346.99025369  .00000030  00000+0  00000+0 0  9996", "line2": "2 53765   0.0657 101.0037 0002383 141.1037 199.0310  1.00271501  4959"}}, "geometry": {"type": "Point", "coordinates": [-160.74569773099688, 0.048869560636854874]}}, {"type": "Feature", "properties": {"norad_id": 54048, "name": "EUTELSAT HOTBIRD 13F", "group": "eutelsat", "lat": -0.06238529151638402, "lon": -150.46446181706392, "alt_km": 35794.80011810863, "timestamp": "2025-12-14T07:33:19.149961+00:00", "meta": {"OBJECT_NAME": "EUTELSAT HOTBIRD 13F", "OBJECT_ID": "2022-134A", "EPOCH": "2025-12-13T15:13:25.567680", "MEAN_MOTION": 1.00270384, "ECCENTRICITY": 0.00022972, "INCLINATION": 0.0478, "RA_OF_ASC_NODE": 293.4985, "ARG_OF_PERICENTER": 66.2228, "MEAN_ANOMALY": 324.1956, "EPHEMERIS_TYPE": 0, "CLASSIFICATION_TYPE": "U", "NORAD_CAT_ID": 54048, "ELEMENT_SET_NO": 999, "REV_AT_EPOCH": 1151, "BSTAR": 0, "MEAN_MOTION_DOT": 1.02e-06, "MEAN_MOTION_DDOT": 0}, "tle": {"line1": "1 54048U 22134A   25347.63432370  .00000102  00000+0  00000+0 0  9993", "line2": "2 54048   0.0478 293.4985 0002297  66.2228 324.1956  1.00270384 11511"}}, "geometry": {"type": "Point", "coordinates": [-150.46446181706392, -0.06238529151638402]}}, {"type": "Feature", "properties": {"norad_id": 54225, "name": "EUTELSAT HOTBIRD 13G", "group": "eutelsat", "lat": -0.03369326934703191, "lon": -150.44217086625915, "alt_km": 35779.39447104214, "timestamp": "2025-12-14T07:33:19.149973+00:00", "meta": {"OBJECT_NAME": "EUTELSAT HOTBIRD 13G", "OBJECT_ID": "2022-146A", "EPOCH": "2025-12-13T08:22:27.424992", "MEAN_MOTION": 1.00272446, "ECCENTRICITY": 0.00017362, "INCLINATION": 0.0478, "RA_OF_ASC_NODE": 234.0643, "ARG_OF_PERICENTER": 306.9385, "MEAN_ANOMALY": 39.8842, "EPHEMERIS_TYPE": 0, "CLASSIFICATION_TYPE": "U", "NORAD_CAT_ID": 54225, "ELEMENT_SET_NO": 999, "REV_AT_EPOCH": 560, "BSTAR": 0, "MEAN_MOTION_DOT": 1.01e-06, "MEAN_MOTION_DDOT": 0}, "tle": {"line1": "1 54225U 22146A   25347.34892853  .00000101  00000+0  00000+0 0  9996", "line2": "2 54225   0.0478 234.0643 0001736 306.9385  39.8842  1.00272446  5603"}}, "geometry": {"type": "Point", "coordinates": [-150.44217086625915, -0.03369326934703191]}}, {"type": "Feature", "properties": {"norad_id": 54259, "name": "EUTELSAT 10B", "group": "eutelsat", "lat": 0.04041872991852831, "lon": -153.47667227958195, "alt_km": 35784.64464420659, "timestamp": "2025-12-14T07:33:19.149985+00:00", "meta": {"OBJECT_NAME": "EUTELSAT 10B", "OBJECT_ID": "2022-157A", "EPOCH": "2025-12-12T23:47:57.727104", "MEAN_MOTION": 1.00270562, "ECCENTRICITY": 6.838e-05, "INCLINATION": 0.062, "RA_OF_ASC_NODE": 99.0663, "ARG_OF_PERICENTER": 52.9272, "MEAN_ANOMALY": 296.8936, "EPHEMERIS_TYPE": 0, "CLASSIFICATION_TYPE": "U", "NORAD_CAT_ID": 54259, "ELEMENT_SET_NO": 999, "REV_AT_EPOCH": 1116, "BSTAR": 0, "MEAN_MOTION_DOT": 8.1e-07, "MEAN_MOTION_DDOT": 0}, "tle": {"line1": "1 54259U 22157A   25346.99164036  .00000081  00000+0  00000+0 0  9997", "line2": "2 54259   0.0620  99.0663 0000683  52.9272 296.8936  1.00270562 11167"}}, "geometry": {"type": "Point", "coordinates": [-153.47667227958195, 0.04041872991852831]}}, {"type": "Feature", "properties": {"norad_id": 59346, "name": "EUTELSAT 36D", "group": "eutelsat", "lat": -0.0363390360622914, "lon": -127.62411861738808, "alt_km": 35788.16115247176, "timestamp": "2025-12-14T07:33:19.149997+00:00", "meta": {"OBJECT_NAME": "EUTELSAT 36D", "OBJECT_ID": "2024-059A", "EPOCH": "2025-12-12T22:12:41.090112", "MEAN_MOTION": 1.00269446, "ECCENTRICITY": 6.864e-05, "INCLINATION": 0.0196, "RA_OF_ASC_NODE": 350.3258, "ARG_OF_PERICENTER": 5.8335, "MEAN_ANOMALY": 94.714, "EPHEMERIS_TYPE": 0, "CLASSIFICATION_TYPE": "U", "NORAD_CAT_ID": 59346, "ELEMENT_SET_NO": 999, "REV_AT_EPOCH": 628, "BSTAR": 0, "MEAN_MOTION_DOT": 0, "MEAN_MOTION_DDOT": 0}, "tle": {"line1": "1 59346U 24059A   25346.92547558  .00000000  00000+0  00000+0 0  9990", "line2": "2 59346   0.0196 350.3258 0000686   5.8335  94.7140  1.00269446  6288"}}, "geometry": {"type": "Point", "coordinates": [-127.62411861738808, -0.0363390360622914]}}]}